UNKNOWN                 
1 81614U          26058.96408128  .00005611  00000+0  34433-1 0  9999
2 81614 101.8432  57.4621 0366558   3.5121 356.8395 12.38063064547537
UNKNOWN                 
1 81615U          26058.49149893  .00002973  00000+0  10787-2 0  9994
2 81615  65.8292 243.2377 0768023 100.7106 268.1291 13.34405103593105
UNKNOWN                 
1 81617U          26055.93295549  .00000292  00000+0  19824-2 0  9995
2 81617 101.2660 232.1669 0032670  98.7048 261.7731 12.57595086562439
UNKNOWN                 
1 81624U          26057.07858416  .00004588  00000+0  72056-3 0  9997
2 81624  66.9770 318.5702 0063505 176.9023 183.2505 14.72174479650798
UNKNOWN                 
1 81640U          26059.49458765  .00000654  00000+0  65135-3 0  9996
2 81640  65.8284 332.9748 0978820  45.8930 321.8505 12.57288869519851
UNKNOWN                 
1 81652U          26059.23601926  .00000372  00000+0  49906-3 0  9995
2 81652 102.1458 328.8043 0363439 186.5037 327.3714 13.44492099589061
UNKNOWN                 
1 81667U          26059.50969027  .00002941  00000+0  78997-3 0  9996
2 81667  74.0321 250.9576 0015541 165.1593 195.0026 14.48470883467903
UNKNOWN                 
1 81674U          26057.96617279  .00001014  00000+0  61639-3 0  9996
2 81674  66.8236 172.2986 0024950 182.2064 291.0582 14.10128568624462
UNKNOWN                 
1 81683U          26059.38201334  .00004114  00000+0  88982-3 0  9999
2 81683  81.2151 213.4510 0023371  61.0421 299.3115 14.57965849647175
UNKNOWN                 
1 81693U          26033.60328402  .00000950  00000+0  71303-2 0  9995
2 81693 101.0975  94.3495 0365424 344.6978  14.3266 12.25967259974124
UNKNOWN                 
1 81745U          26058.09860421  .00002665  00000+0  84785-3 0  9999
2 81745  70.9942 220.3141 0003407 100.0041 260.1480 14.40770365640740
UNKNOWN                 
1 81775U          26058.71557348  .00005865  00000+0  17780-2 0  9997
2 81775  82.9205 160.4387 0013201  11.7886 348.3613 14.42085769636361
