CCSDS_OMM_VERS = 2.0
CREATION_DATE  = 
ORIGINATOR     = 

OBJECT_NAME    = UNKNOWN
OBJECT_ID      = 
CENTER_NAME    = EARTH
REF_FRAME      = TEME
TIME_SYSTEM    = UTC
MEAN_ELEMENT_THEORY = SGP/SGP4

EPOCH          = 2026-02-27T23:08:16.622592
MEAN_MOTION    = 12.38063064
ECCENTRICITY   = .0366558
INCLINATION    = 101.8432
RA_OF_ASC_NODE = 57.4621
ARG_OF_PERICENTER = 3.5121
MEAN_ANOMALY   = 356.8395

EPHEMERIS_TYPE = 0
CLASSIFICATION_TYPE = U
NORAD_CAT_ID   = 81614
ELEMENT_SET_NO = 999
REV_AT_EPOCH   = 54753
BSTAR          = .34433E-1
MEAN_MOTION_DOT = .5611E-4
MEAN_MOTION_DDOT = 0

CCSDS_OMM_VERS = 2.0
CREATION_DATE  = 
ORIGINATOR     = 

OBJECT_NAME    = UNKNOWN
OBJECT_ID      = 
CENTER_NAME    = EARTH
REF_FRAME      = TEME
TIME_SYSTEM    = UTC
MEAN_ELEMENT_THEORY = SGP/SGP4

EPOCH          = 2026-02-27T11:47:45.507552
MEAN_MOTION    = 13.34405103
ECCENTRICITY   = .0768023
INCLINATION    = 65.8292
RA_OF_ASC_NODE = 243.2377
ARG_OF_PERICENTER = 100.7106
MEAN_ANOMALY   = 268.1291

EPHEMERIS_TYPE = 0
CLASSIFICATION_TYPE = U
NORAD_CAT_ID   = 81615
ELEMENT_SET_NO = 999
REV_AT_EPOCH   = 59310
BSTAR          = .10787E-2
MEAN_MOTION_DOT = .2973E-4
MEAN_MOTION_DDOT = 0

CCSDS_OMM_VERS = 2.0
CREATION_DATE  = 
ORIGINATOR     = 

OBJECT_NAME    = UNKNOWN
OBJECT_ID      = 
CENTER_NAME    = EARTH
REF_FRAME      = TEME
TIME_SYSTEM    = UTC
MEAN_ELEMENT_THEORY = SGP/SGP4

EPOCH          = 2026-02-24T22:23:27.354336
MEAN_MOTION    = 12.57595086
ECCENTRICITY   = .003267
INCLINATION    = 101.2660
RA_OF_ASC_NODE = 232.1669
ARG_OF_PERICENTER = 98.7048
MEAN_ANOMALY   = 261.7731

EPHEMERIS_TYPE = 0
CLASSIFICATION_TYPE = U
NORAD_CAT_ID   = 81617
ELEMENT_SET_NO = 999
REV_AT_EPOCH   = 56243
BSTAR          = .19824E-2
MEAN_MOTION_DOT = .292E-5
MEAN_MOTION_DDOT = 0

CCSDS_OMM_VERS = 2.0
CREATION_DATE  = 
ORIGINATOR     = 

OBJECT_NAME    = UNKNOWN
OBJECT_ID      = 
CENTER_NAME    = EARTH
REF_FRAME      = TEME
TIME_SYSTEM    = UTC
MEAN_ELEMENT_THEORY = SGP/SGP4

EPOCH          = 2026-02-26T01:53:09.671424
MEAN_MOTION    = 14.72174479
ECCENTRICITY   = .0063505
INCLINATION    = 66.9770
RA_OF_ASC_NODE = 318.5702
ARG_OF_PERICENTER = 176.9023
MEAN_ANOMALY   = 183.2505

EPHEMERIS_TYPE = 0
CLASSIFICATION_TYPE = U
NORAD_CAT_ID   = 81624
ELEMENT_SET_NO = 999
REV_AT_EPOCH   = 65079
BSTAR          = .72056E-3
MEAN_MOTION_DOT = .4588E-4
MEAN_MOTION_DDOT = 0

CCSDS_OMM_VERS = 2.0
CREATION_DATE  = 
ORIGINATOR     = 

OBJECT_NAME    = UNKNOWN
OBJECT_ID      = 
CENTER_NAME    = EARTH
REF_FRAME      = TEME
TIME_SYSTEM    = UTC
MEAN_ELEMENT_THEORY = SGP/SGP4

EPOCH          = 2026-02-28T11:52:12.372960
MEAN_MOTION    = 12.57288869
ECCENTRICITY   = .097882
INCLINATION    = 65.8284
RA_OF_ASC_NODE = 332.9748
ARG_OF_PERICENTER = 45.8930
MEAN_ANOMALY   = 321.8505

EPHEMERIS_TYPE = 0
CLASSIFICATION_TYPE = U
NORAD_CAT_ID   = 81640
ELEMENT_SET_NO = 999
REV_AT_EPOCH   = 51985
BSTAR          = .65135E-3
MEAN_MOTION_DOT = .654E-5
MEAN_MOTION_DDOT = 0

CCSDS_OMM_VERS = 2.0
CREATION_DATE  = 
ORIGINATOR     = 

OBJECT_NAME    = UNKNOWN
OBJECT_ID      = 
CENTER_NAME    = EARTH
REF_FRAME      = TEME
TIME_SYSTEM    = UTC
MEAN_ELEMENT_THEORY = SGP/SGP4

EPOCH          = 2026-02-28T05:39:52.064064
MEAN_MOTION    = 13.44492099
ECCENTRICITY   = .0363439
INCLINATION    = 102.1458
RA_OF_ASC_NODE = 328.8043
ARG_OF_PERICENTER = 186.5037
MEAN_ANOMALY   = 327.3714

EPHEMERIS_TYPE = 0
CLASSIFICATION_TYPE = U
NORAD_CAT_ID   = 81652
ELEMENT_SET_NO = 999
REV_AT_EPOCH   = 58906
BSTAR          = .49906E-3
MEAN_MOTION_DOT = .372E-5
MEAN_MOTION_DDOT = 0

CCSDS_OMM_VERS = 2.0
CREATION_DATE  = 
ORIGINATOR     = 

OBJECT_NAME    = UNKNOWN
OBJECT_ID      = 
CENTER_NAME    = EARTH
REF_FRAME      = TEME
TIME_SYSTEM    = UTC
MEAN_ELEMENT_THEORY = SGP/SGP4

EPOCH          = 2026-02-28T12:13:57.239328
MEAN_MOTION    = 14.48470883
ECCENTRICITY   = .0015541
INCLINATION    = 74.0321
RA_OF_ASC_NODE = 250.9576
ARG_OF_PERICENTER = 165.1593
MEAN_ANOMALY   = 195.0026

EPHEMERIS_TYPE = 0
CLASSIFICATION_TYPE = U
NORAD_CAT_ID   = 81667
ELEMENT_SET_NO = 999
REV_AT_EPOCH   = 46790
BSTAR          = .78997E-3
MEAN_MOTION_DOT = .2941E-4
MEAN_MOTION_DDOT = 0

CCSDS_OMM_VERS = 2.0
CREATION_DATE  = 
ORIGINATOR     = 

OBJECT_NAME    = UNKNOWN
OBJECT_ID      = 
CENTER_NAME    = EARTH
REF_FRAME      = TEME
TIME_SYSTEM    = UTC
MEAN_ELEMENT_THEORY = SGP/SGP4

EPOCH          = 2026-02-26T23:11:17.329056
MEAN_MOTION    = 14.10128568
ECCENTRICITY   = .002495
INCLINATION    = 66.8236
RA_OF_ASC_NODE = 172.2986
ARG_OF_PERICENTER = 182.2064
MEAN_ANOMALY   = 291.0582

EPHEMERIS_TYPE = 0
CLASSIFICATION_TYPE = U
NORAD_CAT_ID   = 81674
ELEMENT_SET_NO = 999
REV_AT_EPOCH   = 62446
BSTAR          = .61639E-3
MEAN_MOTION_DOT = .1014E-4
MEAN_MOTION_DDOT = 0

CCSDS_OMM_VERS = 2.0
CREATION_DATE  = 
ORIGINATOR     = 

OBJECT_NAME    = UNKNOWN
OBJECT_ID      = 
CENTER_NAME    = EARTH
REF_FRAME      = TEME
TIME_SYSTEM    = UTC
MEAN_ELEMENT_THEORY = SGP/SGP4

EPOCH          = 2026-02-28T09:10:05.952576
MEAN_MOTION    = 14.57965849
ECCENTRICITY   = .0023371
INCLINATION    = 81.2151
RA_OF_ASC_NODE = 213.4510
ARG_OF_PERICENTER = 61.0421
MEAN_ANOMALY   = 299.3115

EPHEMERIS_TYPE = 0
CLASSIFICATION_TYPE = U
NORAD_CAT_ID   = 81683
ELEMENT_SET_NO = 999
REV_AT_EPOCH   = 64717
BSTAR          = .88982E-3
MEAN_MOTION_DOT = .4114E-4
MEAN_MOTION_DDOT = 0

CCSDS_OMM_VERS = 2.0
CREATION_DATE  = 
ORIGINATOR     = 

OBJECT_NAME    = UNKNOWN
OBJECT_ID      = 
CENTER_NAME    = EARTH
REF_FRAME      = TEME
TIME_SYSTEM    = UTC
MEAN_ELEMENT_THEORY = SGP/SGP4

EPOCH          = 2026-02-02T14:28:43.739328
MEAN_MOTION    = 12.25967259
ECCENTRICITY   = .0365424
INCLINATION    = 101.0975
RA_OF_ASC_NODE = 94.3495
ARG_OF_PERICENTER = 344.6978
MEAN_ANOMALY   = 14.3266

EPHEMERIS_TYPE = 0
CLASSIFICATION_TYPE = U
NORAD_CAT_ID   = 81693
ELEMENT_SET_NO = 999
REV_AT_EPOCH   = 97412
BSTAR          = .71303E-2
MEAN_MOTION_DOT = .95E-5
MEAN_MOTION_DDOT = 0

CCSDS_OMM_VERS = 2.0
CREATION_DATE  = 
ORIGINATOR     = 

OBJECT_NAME    = UNKNOWN
OBJECT_ID      = 
CENTER_NAME    = EARTH
REF_FRAME      = TEME
TIME_SYSTEM    = UTC
MEAN_ELEMENT_THEORY = SGP/SGP4

EPOCH          = 2026-02-27T02:21:59.403744
MEAN_MOTION    = 14.40770365
ECCENTRICITY   = .0003407
INCLINATION    = 70.9942
RA_OF_ASC_NODE = 220.3141
ARG_OF_PERICENTER = 100.0041
MEAN_ANOMALY   = 260.1480

EPHEMERIS_TYPE = 0
CLASSIFICATION_TYPE = U
NORAD_CAT_ID   = 81745
ELEMENT_SET_NO = 999
REV_AT_EPOCH   = 64074
BSTAR          = .84785E-3
MEAN_MOTION_DOT = .2665E-4
MEAN_MOTION_DDOT = 0

CCSDS_OMM_VERS = 2.0
CREATION_DATE  = 
ORIGINATOR     = 

OBJECT_NAME    = UNKNOWN
OBJECT_ID      = 
CENTER_NAME    = EARTH
REF_FRAME      = TEME
TIME_SYSTEM    = UTC
MEAN_ELEMENT_THEORY = SGP/SGP4

EPOCH          = 2026-02-27T17:10:25.548672
MEAN_MOTION    = 14.42085769
ECCENTRICITY   = .0013201
INCLINATION    = 82.9205
RA_OF_ASC_NODE = 160.4387
ARG_OF_PERICENTER = 11.7886
MEAN_ANOMALY   = 348.3613

EPHEMERIS_TYPE = 0
CLASSIFICATION_TYPE = U
NORAD_CAT_ID   = 81775
ELEMENT_SET_NO = 999
REV_AT_EPOCH   = 63636
BSTAR          = .1778E-2
MEAN_MOTION_DOT = .5865E-4
MEAN_MOTION_DDOT = 0

